[
  {
    "name": "KUIPER-00527",
    "noradId": "69269",
    "line1": "1 69269U 26118C   26159.50002315 -.00010024  00000+0 -27210-3 0  9992",
    "line2": "2 69269  51.8614  95.3602 0009708 144.7210 264.1386 15.35828554  1307"
  },
  {
    "name": "KUIPER-00562",
    "noradId": "69270",
    "line1": "1 69270U 26118D   26159.50002315 -.00008285  00000+0 -20492-3 0  9995",
    "line2": "2 69270  51.8718  95.1914 0002001  89.8295  36.5887 15.38454103  2619"
  },
  {
    "name": "KUIPER-00570",
    "noradId": "69271",
    "line1": "1 69271U 26118E   26159.50002315 -.00011414  00000+0 -31590-3 0  9995",
    "line2": "2 69271  51.8571  95.3839 0011649 153.5014 243.1912 15.35361464  2205"
  },
  {
    "name": "KUIPER-00572",
    "noradId": "69272",
    "line1": "1 69272U 26118F   26159.50002315 -.00010509  00000+0 -27700-3 0  9998",
    "line2": "2 69272  51.8671  95.3155 0007277 140.0418 290.6077 15.36813202  1952"
  },
  {
    "name": "KUIPER-00581",
    "noradId": "69273",
    "line1": "1 69273U 26118G   26159.50002315 -.00010059  00000+0 -26730-3 0  9991",
    "line2": "2 69273  51.8651  95.3384 0008860 144.6760 275.0472 15.36494116  2747"
  },
  {
    "name": "KUIPER-00584",
    "noradId": "69274",
    "line1": "1 69274U 26118H   26159.50002315 -.00013983  00000+0 -39048-3 0  9997",
    "line2": "2 69274  51.8599  95.4044 0011172 157.2988 229.6294 15.35300242  1308"
  },
  {
    "name": "KUIPER-00587",
    "noradId": "69275",
    "line1": "1 69275U 26118J   26159.50002315 -.00010895  00000+0 -29080-3 0  9992",
    "line2": "2 69275  51.8624  95.3323 0008297 146.5747 276.1397 15.36464261  1309"
  },
  {
    "name": "KUIPER-00590",
    "noradId": "69276",
    "line1": "1 69276U 26118K   26159.50002315 -.00008858  00000+0 -22529-3 0  9990",
    "line2": "2 69276  51.8685  95.2531 0004297 126.0983 334.7515 15.37697325  2504"
  },
  {
    "name": "KUIPER-00592",
    "noradId": "69277",
    "line1": "1 69277U 26118L   26159.50002315 -.00009238  00000+0 -23376-3 0  9995",
    "line2": "2 69277  51.8706  95.2359 0003725 104.9354   3.0553 15.37917143  1307"
  },
  {
    "name": "KUIPER-00593",
    "noradId": "69278",
    "line1": "1 69278U 26118M   26159.50002315 -.00009041  00000+0 -22929-3 0  9991",
    "line2": "2 69278  51.8711  95.2371 0004011 122.5643 344.1690 15.37817770  2716"
  },
  {
    "name": "KUIPER-00594",
    "noradId": "69279",
    "line1": "1 69279U 26118N   26159.50002315 -.00006633  00000+0 -16217-3 0  9999",
    "line2": "2 69279  51.8715  95.1828 0001178  56.3760  76.1595 15.38422385  1307"
  },
  {
    "name": "KUIPER-00595",
    "noradId": "69280",
    "line1": "1 69280U 26118P   26159.50002315 -.00008856  00000+0 -22080-3 0  9995",
    "line2": "2 69280  51.8709  95.2032 0001945 102.8847  20.8082 15.38314605  2689"
  },
  {
    "name": "KUIPER-00596",
    "noradId": "69281",
    "line1": "1 69281U 26118Q   26159.50002315 -.00011959  00000+0 -32851-3 0  9991",
    "line2": "2 69281  51.8547  95.3920 0011936 152.7955 239.1615 15.35640255  1958"
  },
  {
    "name": "KUIPER-00597",
    "noradId": "69282",
    "line1": "1 69282U 26118R   26159.50002315 -.00010492  00000+0 -27601-3 0  9990",
    "line2": "2 69282  51.8647  95.2999 0007140 137.8080 300.8940 15.36872620  1300"
  },
  {
    "name": "KUIPER-00599",
    "noradId": "69283",
    "line1": "1 69283U 26118S   26159.50002315 -.00009995  00000+0 -25984-3 0  9999",
    "line2": "2 69283  51.8689  95.2867 0006281 132.6023 311.6456 15.37182646  1750"
  },
  {
    "name": "KUIPER-00600",
    "noradId": "69284",
    "line1": "1 69284U 26118T   26159.50002315 -.00010613  00000+0 -28181-3 0  9991",
    "line2": "2 69284  51.8638  95.3281 0008915 140.9187 283.8790 15.36581914  2533"
  },
  {
    "name": "KUIPER-00601",
    "noradId": "69285",
    "line1": "1 69285U 26118U   26159.50002315 -.00009795  00000+0 -25180-3 0  9997",
    "line2": "2 69285  51.8702  95.2646 0004817 125.3299 328.9548 15.37509124  2567"
  },
  {
    "name": "KUIPER-00602",
    "noradId": "69286",
    "line1": "1 69286U 26118V   26159.50002315 -.00009368  00000+0 -23701-3 0  9991",
    "line2": "2 69286  51.8699  95.2305 0003122 112.3457 358.9275 15.37945601  1300"
  },
  {
    "name": "KUIPER-00603",
    "noradId": "69287",
    "line1": "1 69287U 26118W   26159.50002315 -.00008394  00000+0 -21523-3 0  9990",
    "line2": "2 69287  51.8669  95.2754 0005573 128.2150 322.2410 15.37362247  2512"
  },
  {
    "name": "KUIPER-00605",
    "noradId": "69288",
    "line1": "1 69288U 26118X   26159.50002315 -.00009915  00000+0 -25985-3 0  9997",
    "line2": "2 69288  51.8659  95.3092 0007660 134.3020 299.6489 15.36910448  2357"
  },
  {
    "name": "KUIPER-00606",
    "noradId": "69289",
    "line1": "1 69289U 26118Y   26159.50002315 -.00007943  00000+0 -20156-3 0  9992",
    "line2": "2 69289  51.8693  95.2567 0004694 121.4253 337.1977 15.37597904  2204"
  },
  {
    "name": "KUIPER-00607",
    "noradId": "69290",
    "line1": "1 69290U 26118Z   26159.50002315 -.00007883  00000+0 -20195-3 0  9990",
    "line2": "2 69290  51.8679  95.2808 0006386 127.4638 320.1581 15.37282454  2160"
  },
  {
    "name": "KUIPER-00608",
    "noradId": "69291",
    "line1": "1 69291U 26118AA  26159.50002315 -.00199866  00000+0 -57193-2 0  9991",
    "line2": "2 69291  51.8600  95.3493 0009574 146.9219 267.2285 15.36125604  2130"
  },
  {
    "name": "KUIPER-00610",
    "noradId": "69292",
    "line1": "1 69292U 26118AB  26159.50002315 -.00006891  00000+0 -17043-3 0  9998",
    "line2": "2 69292  51.8718  95.2141 0002922 106.5381  10.2388 15.38139112  2054"
  },
  {
    "name": "KUIPER-00613",
    "noradId": "69293",
    "line1": "1 69293U 26118AC  26159.50002315  .00004795  00000+0  14849-3 0  9999",
    "line2": "2 69293  51.8624  95.3776 0010406 156.9165 243.4255 15.35316227  1302"
  },
  {
    "name": "KUIPER-00618",
    "noradId": "69294",
    "line1": "1 69294U 26118AD  26159.50002315 -.00008726  00000+0 -21580-3 0  9990",
    "line2": "2 69294  51.8717  95.1852 0002255  67.1808  63.1802 15.38537979  1384"
  },
  {
    "name": "KUIPER-00620",
    "noradId": "69295",
    "line1": "1 69295U 26118AE  26159.50002315 -.00009127  00000+0 -22849-3 0  9996",
    "line2": "2 69295  51.8714  95.2096 0003061  91.1642  28.5839 15.38228472  2596"
  }
]